BEIDOU 7                
1 37256U 10068A   20230.59414212 -.00000181  00000-0  00000-0 0  9994
2 37256  51.3780 297.6135 0082319 213.1666 147.2430  1.00294011 35456
EUTELSAT KA-SAT 9A      
1 37258U 10069A   20230.78780587  .00000055  00000-0  00000-0 0  9998
2 37258   0.0210 300.4211 0004790 150.8922 167.8817  1.00274049 22669
HISPASAT 30W-5          
1 37264U 10070A   20230.78004187 -.00000223  00000-0  00000+0 0  9999
2 37264   0.0192 125.2835 0005628  27.5452  64.6068  1.00271332 35319
KOREASAT 6              
1 37265U 10070B   20230.93383691 -.00000369  00000-0  00000-0 0  9999
2 37265   0.0111  94.7352 0000973  81.6050 242.5949  1.00272376 35413
BEIDOU 8                
1 37384U 11013A   20230.79831032 -.00000154  00000-0  10000-3 0  9996
2 37384  59.3550  60.9721 0049794 201.0860 109.7637  1.00289353 34325
INTELSAT NEW DAWN       
1 37392U 11016A   20230.78938403  .00000149  00000-0  00000-0 0  9996
2 37392   0.0230 188.4899 0000325 161.8912 293.1879  1.00273243 31955
YAHSAT 1A               
1 37393U 11016B   20231.08362280  .00000093  00000-0  00000+0 0  9992
2 37393   0.0304 102.0593 0001707   4.5018 302.9562  1.00270995 34217
SBIRS GEO-1 (USA 230)   
1 37481U 11019A   20231.07968970 -.00000012  00000-0  00000+0 0  9992
2 37481   1.9997 346.0168 0002423 158.6677 277.0928  1.00272199 33999
TELSTAR 14R             
1 37602U 11021A   20231.20279198 -.00000288  00000-0  00000+0 0  9997
2 37602   0.0548 295.5728 0001471 171.0802 230.3675  1.00270814 34441
GSAT-8                  
1 37605U 11022A   20230.40952185  .00000079  00000-0  00000+0 0  9993
2 37605   0.0477 276.5148 0003127 343.3636 268.8276  1.00271534 33889
ST-2                    
1 37606U 11022B   20230.85674503 -.00000218  00000-0  00000+0 0  9994
2 37606   0.0125 109.1558 0001377  62.9062 191.0497  1.00272800 33898
CHINASAT 10 (ZX 10)     
1 37677U 11026A   20230.94249299 -.00000360  00000-0  00000-0 0  9995
2 37677   0.0820 266.4345 0004775 263.9048 246.2451  1.00273079 33624
TIANLIAN 1-02           
1 37737U 11032A   20230.67658006 -.00000024  00000-0  00000-0 0  9996
2 37737   2.8576  75.0491 0015374  92.4473 213.5078  1.00272665 33362
GSAT-12                 
1 37746U 11034A   20230.93301757 -.00000172  00000-0  00000-0 0  9999
2 37746   0.1282 278.0388 0009822 178.3997 289.2001  1.00271304 22142
SES-3                   
1 37748U 11035A   20230.90906380 -.00000108  00000-0  00000-0 0  9991
2 37748   0.0185 300.9629 0002637 209.1052  40.9287  1.00269161 33261
KAZSAT-2                
1 37749U 11035B   20231.09042720 -.00000205  00000-0  00000+0 0  9999
2 37749   0.0221 153.0408 0001618  52.9043 240.0407  1.00271740 33226
BEIDOU 9                
1 37763U 11038A   20230.92697259 -.00000095  00000-0  10000-3 0  9994
2 37763  54.4535 184.8126 0074160 225.7277 345.4938  1.00281755 33296
ASTRA 1N                
1 37775U 11041A   20230.89888624  .00000113  00000-0  00000-0 0  9991
2 37775   0.0396  32.5634 0003395  58.3352 218.6057  1.00270528 23175
BSAT-3C (JCSAT-110R)    
1 37776U 11041B   20230.93457760 -.00000358  00000-0  00000-0 0  9992
2 37776   0.0078 152.8194 0000499 117.4196 142.9169  1.00271795 29137
PAKSAT-1R               
1 37779U 11042A   20231.07049601  .00000146  00000-0  00000+0 0  9996
2 37779   0.0202 145.5821 0003713 314.8762 289.7630  1.00271018 32932
CHINASAT 1A (ZX 1A)     
1 37804U 19001A   20231.18668542 -.00000345  00000-0  00000+0 0  9993
2 37804   0.0627 275.7577 0001488 297.7708 310.5352  1.00270187 32729
COSMOS 2473             
1 37806U 11048A   20230.78326961 -.00000118  00000-0  00000-0 0  9998
2 37806   0.1932 101.2708 0003539  42.5775  90.8325  1.00269327 32710
SES-2                   
1 37809U 11049A   20230.62511087 -.00000201  00000-0  00000-0 0  9993
2 37809   0.0092 275.0686 0002694 233.7517 315.6775  1.00269166 32654
ARABSAT-5C              
1 37810U 11049B   20230.89888646  .00000116  00000-0  00000+0 0  9995
2 37810   0.0609  11.3704 0005074 150.7367 148.1938  1.00271074 32558
EUTELSAT 7 WEST A       
1 37816U 11051A   20230.78457814 -.00000067  00000-0  00000+0 0  9997
2 37816   0.0659  36.0651 0007103 128.7201  76.9734  1.00271449 32616
QUETZSAT 1              
1 37826U 11054A   20231.13591312 -.00000248  00000-0  00000+0 0  9994
2 37826   0.0161 292.3646 0002982 220.6219 145.8864  1.00264250 32743
INTELSAT 18 (IS-18)     
1 37834U 11056A   20230.73485546  .00000046  00000-0  00000-0 0  9997
2 37834   0.0143 104.6594 0001831  50.2324 256.2201  1.00272299 32570
EUTELSAT 16A            
1 37836U 11057A   20230.78920164  .00000097  00000-0  00000+0 0  9990
2 37836   0.0669  12.0588 0005120 133.2103 121.4394  1.00270805 32434
VIASAT-1                
1 37843U 11059A   20230.90662119 -.00000030  00000-0  00000-0 0  9996
2 37843   0.0254 118.4702 0002177  29.6410  29.9027  1.00270243 25971
ASIASAT 7               
1 37933U 11069A   20230.87888016 -.00000341  00000-0  00000-0 0  9994
2 37933   0.0391 263.9927 0001554 214.1420 270.4821  1.00272684 23501
BEIDOU 10               
1 37948U 11073A   20230.66140101 -.00000123  00000-0  10000-3 0  9990
2 37948  51.4726 297.2083 0070660 213.8185 149.3527  1.00282144 32059
LUCH 5A                 
1 37951U 11074B   20231.26342780 -.00000055  00000-0  00000+0 0  9998
2 37951   3.3982 113.1708 0003816  18.9070  96.8751  1.00269869 31849
NIGCOMSAT 1R            
1 38014U 11077A   20230.82549209  .00000138  00000-0  00000-0 0  9990
2 38014   0.0044 333.1855 0002398 158.7110 174.4136  1.00270689 31608
FENGYUN 2F              
1 38049U 12002A   20230.88018870 -.00000365  00000-0  00000-0 0  9991
2 38049   2.2006  83.4111 0000722  81.3331 231.0674  1.00276790 31531
WGS F4 (USA 233)        
1 38070U 12003A   20231.24771806 -.00000222  00000-0  00000+0 0  9993
2 38070   0.0086 123.3224 0000728 121.0869 260.2196  1.00270727 31371
SES-4                   
1 38087U 12007A   20230.78161212 -.00000175  00000-0  00000-0 0  9995
2 38087   0.0174  57.6112 0002507  89.9912  78.3755  1.00271437 30894
BEIDOU 11               
1 38091U 12008A   20230.93382833  .00000050  00000-0  00000-0 0  9993
2 38091   1.6045  68.3958 0001753 287.0342   6.1861  1.00270605 31120
MUOS-1                  
1 38093U 12009A   20231.05309024 -.00000133  00000-0  00000+0 0  9993
2 38093   2.5301   9.8025 0051295   2.5459 233.6540  1.00271254 31107
INTELSAT 22 (IS-22)     
1 38098U 12011A   20231.08754841 -.00000066  00000-0  00000+0 0  9990
2 38098   0.0196 234.2344 0002599 291.8496 264.4312  1.00271492 30700
APSTAR 7                
1 38107U 12013A   20230.92827105 -.00000109  00000-0  00000-0 0  9998
2 38107   0.0222 108.5186 0002367  38.3983 230.5233  1.00272297 30829
YAHSAT 1B               
1 38245U 12016A   20231.08266321  .00000119  00000-0  00000+0 0  9998
2 38245   0.0153 109.6836 0001446  10.4770 284.1033  1.00269296 30571
AEHF-2 (USA 235)        
1 38254U 12019A   20230.90837076 -.00000281  00000-0  00000-0 0  9994
2 38254   2.0986  48.8761 0006867  72.1578 105.0150  1.00265994 29504
JCSAT-13                
1 38331U 12023A   20231.02613435 -.00000364  00000-0  00000+0 0  9991
2 38331   0.0117 139.5059 0002335   8.4123 312.3269  1.00272551 30228
VINASAT-2               
1 38332U 12023B   20230.88411433 -.00000336  00000-0  00000-0 0  9999
2 38332   0.0167 272.9656 0001849 240.5675 263.3095  1.00268738 25306
NIMIQ 6                 
1 38342U 12026A   20231.23694280 -.00000181  00000-0  00000+0 0  9993
2 38342   0.0612 287.5843 0002420 214.9528 178.6943  1.00270294 30249
CHINASAT 2A (ZX 2A)     
1 38352U 12028A   20231.09278257 -.00000301  00000-0  00000+0 0  9996
2 38352   0.0181 159.0405 0001043 141.9840 157.5572  1.00273458 30298
INTELSAT 19 (IS-19)     
1 38356U 12030A   20230.89074426 -.00000064  00000-0  00000-0 0  9999
2 38356   0.0146 101.1985 0002786  50.1990 301.9801  1.00271364 29119
ECHOSTAR 17             
1 38551U 12035A   20231.17036000 -.00000083  00000-0  00000+0 0  9999
2 38551   0.0142 103.3610 0002129  40.8553 137.0002  1.00271577 29772
METEOSAT-10 (MSG-3)     
1 38552U 12035B   20230.78789310  .00000057  00000-0  00000-0 0  9996
2 38552   1.3580 343.4290 0001387 136.7152 139.5264  1.00271394 29537
SES-5                   
1 38652U 12036A   20230.77599469  .00000027  00000-0  00000-0 0  9998
2 38652   0.0432  94.4562 0001886  55.0622 101.4212  1.00272462 23143
TIANLIAN 1-03           
1 38730U 12040A   20230.80188315  .00000118  00000-0  00000-0 0  9999
2 38730   0.3663 104.2415 0002779 300.7143 230.6566  1.00271285 29635
INTELSAT 20 (IS-20)     
1 38740U 12043A   20231.15861708 -.00000032  00000-0  00000+0 0  9991
2 38740   0.0201 119.5908 0001036  73.6032 259.3763  1.00270929 29489
HYLAS 2                 
1 38741U 12043B   20231.15111478  .00000147  00000-0  00000+0 0  9990
2 38741   0.0616 282.5276 0001476 223.4294 266.4404  1.00273644 29503
INTELSAT 21 (IS-21)     
1 38749U 12045A   20230.77445878 -.00000291  00000-0  00000-0 0  9993
2 38749   0.0334 260.2609 0001958 254.3170  32.8288  1.00270726 29190
ASTRA 2F                
1 38778U 12051A   20231.15059137  .00000142  00000-0  00000+0 0  9997
2 38778   0.0943 250.3737 0003267 307.1443 211.8464  1.00270325 28947
GSAT-10                 
1 38779U 12051B   20230.93302041 -.00000172  00000-0  00000-0 0  9993
2 38779   0.0999 280.5290 0000243  73.7512  31.3619  1.00270964 28768
INTELSAT 23 (IS-23)     
1 38867U 12057A   20231.07479826 -.00000292  00000-0  00000+0 0  9991
2 38867   0.0343 252.1183 0001624 258.7598 149.9555  1.00270826 28759
BEIDOU 16               
1 38953U 12059A   20230.94354182 -.00000184  00000-0  00000-0 0  9992
2 38953   1.2477  84.0253 0006278 268.4828  38.0134  1.00272999 28697
LUCH 5B                 
1 38977U 12061A   20230.78283343 -.00000140  00000-0  00000-0 0  9995
2 38977   5.8710  67.2434 0002907  69.3740  95.5375  1.00273890 28824
